COMMENT,ORIGINATOR,NORAD_CAT_ID,OBJECT_NAME,OBJECT_TYPE,CLASSIFICATION_TYPE,INTLDES,EPOCH,EPOCH_MICROSECONDS,MEAN_MOTION,ECCENTRICITY,INCLINATION,RA_OF_ASC_NODE,ARG_OF_PERICENTER,MEAN_ANOMALY,EPHEMERIS_TYPE,ELEMENT_SET_NO,REV_AT_EPOCH,BSTAR,MEAN_MOTION_DOT,MEAN_MOTION_DDOT,FILE,TLE_LINE0,TLE_LINE1,TLE_LINE2,OBJECT_ID,OBJECT_NUMBER,SEMIMAJOR_AXIS,PERIOD,APOGEE,PERIGEE,DECAYED
"GENERATED VIA SPACETRACK.ORG API","18 SPCS","55087","SPACEBEE-167","PAYLOAD","U","23001CG","2023-12-27 17:46:30","11232","15.2861409","0.0012916","97.4511","60.7275","48.3414","311.8929","0","999","5456","0.001062","0.00029638","0","4147095","0 SPACEBEE-167","1 55087U 23001CG  23361.74062513  .00029638  00000-0  10620-2 0  9993","2 55087  97.4511  60.7275 0012916  48.3414 311.8929 15.28614090 54563","2023-001CG","55087","6858.091","94.203","488.814","471.098","0"
"GENERATED VIA SPACETRACK.ORG API","18 SPCS","55087","SPACEBEE-167","PAYLOAD","U","23001CG","2023-12-28 03:12:04","635936","15.28635721","0.0012849","97.4508","61.1205","47.1253","313.1063","0","999","5462","0.0010301","0.0002876","0","4147634","0 SPACEBEE-167","1 55087U 23001CG  23362.13338699  .00028760  00000-0  10301-2 0  9999","2 55087  97.4508  61.1205 0012849  47.1253 313.1063 15.28635721 54625","2023-001CG","55087","6858.027","94.202","488.704","471.080","0"
"GENERATED VIA SPACETRACK.ORG API","18 SPCS","55087","SPACEBEE-167","PAYLOAD","U","23001CG","2023-12-28 09:29:07","450368","15.28649707","0.0012855","97.4505","61.3827","46.2826","313.9476","0","999","5466","0.0010054","0.00028078","0","4147674","0 SPACEBEE-167","1 55087U 23001CG  23362.39522512  .00028078  00000-0  10054-2 0  9993","2 55087  97.4505  61.3827 0012855  46.2826 313.9476 15.28649707 54666","2023-001CG","55087","6857.985","94.201","488.666","471.034","0"
"GENERATED VIA SPACETRACK.ORG API","18 SPCS","55087","SPACEBEE-167","PAYLOAD","U","23001CG","2023-12-28 15:46:10","52256","15.28664386","0.0012844","97.4505","61.6446","45.392","314.8365","0","999","5470","0.00096682","0.00027006","0","4147928","0 SPACEBEE-167","1 55087U 23001CG  23362.65706079  .00027006  00000-0  96682-3 0  9996","2 55087  97.4505  61.6446 0012844  45.3920 314.8365 15.28664386 54701","2023-001CG","55087","6857.941","94.200","488.614","470.998","0"
"GENERATED VIA SPACETRACK.ORG API","18 SPCS","55087","SPACEBEE-167","PAYLOAD","U","23001CG","2023-12-29 02:45:59","104224","15.28688026","0.001286","97.4504","62.1032","43.8993","316.3266","0","999","5477","0.00091656","0.00025612","0","4148460","0 SPACEBEE-167","1 55087U 23001CG  23363.11526741  .00025612  00000-0  91656-3 0  9991","2 55087  97.4504  62.1032 0012860  43.8993 316.3266 15.28688026 54779","2023-001CG","55087","6857.870","94.198","488.554","470.916","0"
"GENERATED VIA SPACETRACK.ORG API","18 SPCS","55087","SPACEBEE-167","PAYLOAD","U","23001CG","2023-12-29 16:54:18","398304","15.28720068","0.0012792","97.4502","62.6925","42.2504","317.9718","0","999","5486","0.00094371","0.00026401","0","4148754","0 SPACEBEE-167","1 55087U 23001CG  23363.70437961  .00026401  00000-0  94371-3 0  9995","2 55087  97.4502  62.6925 0012792  42.2504 317.9718 15.28720068 54860","2023-001CG","55087","6857.774","94.196","488.412","470.867","0"
"GENERATED VIA SPACETRACK.ORG API","18 SPCS","55087","SPACEBEE-167","PAYLOAD","U","23001CG","2023-12-29 16:54:18","398304","15.28720068","0.0012792","97.4502","62.6925","42.2504","317.9718","0","999","5486","0.00094371","0.00026401","0","4148761","0 SPACEBEE-167","1 55087U 23001CG  23363.70437961  .00026401  00000-0  94371-3 0  9995","2 55087  97.4502  62.6925 0012792  42.2504 317.9718 15.28720068 54860","2023-001CG","55087","6857.774","94.196","488.412","470.867","0"
"GENERATED VIA SPACETRACK.ORG API","18 SPCS","55087","SPACEBEE-167","PAYLOAD","U","23001CG","2023-12-30 03:54:05","997888","15.28743933","0.00128","97.45","63.1511","40.6302","319.589","0","999","5493","0.00091185","0.00025523","0","4149332","0 SPACEBEE-167","1 55087U 23001CG  23364.16256942  .00025523  00000-0  91185-3 0  9998","2 55087  97.4500  63.1511 0012800  40.6302 319.5890 15.28743933 54936","2023-001CG","55087","6857.703","94.195","488.346","470.790","0"
"GENERATED VIA SPACETRACK.ORG API","18 SPCS","55087","SPACEBEE-167","PAYLOAD","U","23001CG","2023-12-30 18:02:23","446464","15.28773244","0.0012733","97.4498","63.7406","38.7284","321.4866","0","999","5502","0.00085021","0.00023808","0","4149553","0 SPACEBEE-167","1 55087U 23001CG  23364.75166026  .00023808  00000-0  85021-3 0  9992","2 55087  97.4498  63.7406 0012733  38.7284 321.4866 15.28773244 55027","2023-001CG","55087","6857.615","94.193","488.212","470.749","0"
"GENERATED VIA SPACETRACK.ORG API","18 SPCS","55087","SPACEBEE-167","PAYLOAD","U","23001CG","2023-12-30 18:02:23","446464","15.28773244","0.0012733","97.4498","63.7406","38.7284","321.4866","0","999","5502","0.00085021","0.00023808","0","4149598","0 SPACEBEE-167","1 55087U 23001CG  23364.75166026  .00023808  00000-0  85021-3 0  9992","2 55087  97.4498  63.7406 0012733  38.7284 321.4866 15.28773244 55027","2023-001CG","55087","6857.615","94.193","488.212","470.749","0"
"GENERATED VIA SPACETRACK.ORG API","18 SPCS","55087","SPACEBEE-167","PAYLOAD","U","23001CG","2023-12-31 20:44:40","651296","15.28821313","0.0012612","97.4497","64.8539","34.952","325.2545","0","999","5519","0.00079839","0.0002238","0","4150400","0 SPACEBEE-167","1 55087U 23001CG  23365.86435939  .00022380  00000-0  79839-3 0  9991","2 55087  97.4497  64.8539 0012612  34.9520 325.2545 15.28821313 55197","2023-001CG","55087","6857.472","94.190","487.985","470.688","0"
"GENERATED VIA SPACETRACK.ORG API","18 SPCS","55087","SPACEBEE-167","PAYLOAD","U","23001CG","2024-01-01 03:01:40","748448","15.28832678","0.0012613","97.4497","65.1159","33.9545","326.25","0","999","5523","0.00078889","0.0002212","0","4150633","0 SPACEBEE-167","1 55087U 23001CG  24001.12616607  .00022120  00000-0  78889-3 0  9997","2 55087  97.4497  65.1159 0012613  33.9545 326.2500 15.28832678 55239","2023-001CG","55087","6857.438","94.190","487.952","470.653","0"
"GENERATED VIA SPACETRACK.ORG API","18 SPCS","55087","SPACEBEE-167","PAYLOAD","U","23001CG","2024-01-01 03:01:40","748448","15.28832678","0.0012613","97.4497","65.1159","33.9545","326.25","0","999","5523","0.00078889","0.0002212","0","4150923","0 SPACEBEE-167","1 55087U 23001CG  24001.12616607  .00022120  00000-0  78889-3 0  9997","2 55087  97.4497  65.1159 0012613  33.9545 326.2500 15.28832678 55239","2023-001CG","55087","6857.438","94.190","487.952","470.653","0"
"GENERATED VIA SPACETRACK.ORG API","18 SPCS","55087","SPACEBEE-167","PAYLOAD","U","23001CG","2024-01-01 21:52:39","908928","15.28871409","0.0012575","97.4497","65.902","31.5872","328.612","0","999","5535","0.00092694","0.00026048","0","4151465","0 SPACEBEE-167","1 55087U 23001CG  24001.91157302  .00026048  00000-0  92694-3 0  9999","2 55087  97.4497  65.9020 0012575  31.5872 328.6120 15.28871409 55350","2023-001CG","55087","6857.322","94.187","487.810","470.564","0"
"GENERATED VIA SPACETRACK.ORG API","18 SPCS","55087","SPACEBEE-167","PAYLOAD","U","23001CG","2024-01-02 04:09:39","221568","15.2888611","0.0012557","97.4497","66.1639","30.6761","329.521","0","999","5539","0.00094011","0.00026432","0","4151431","0 SPACEBEE-167","1 55087U 23001CG  24002.17337062  .00026432  00000-0  94011-3 0  9993","2 55087  97.4497  66.1639 0012557  30.6761 329.5210 15.28886110 55395","2023-001CG","55087","6857.278","94.186","487.754","470.532","0"
"GENERATED VIA SPACETRACK.ORG API","18 SPCS","55087","SPACEBEE-167","PAYLOAD","U","23001CG","2024-01-02 04:09:39","221568","15.2888611","0.0012557","97.4497","66.1639","30.6761","329.521","0","999","5539","0.00094011","0.00026432","0","4151729","0 SPACEBEE-167","1 55087U 23001CG  24002.17337062  .00026432  00000-0  94011-3 0  9993","2 55087  97.4497  66.1639 0012557  30.6761 329.5210 15.28886110 55395","2023-001CG","55087","6857.278","94.186","487.754","470.532","0"
"GENERATED VIA SPACETRACK.ORG API","18 SPCS","55087","SPACEBEE-167","PAYLOAD","U","23001CG","2024-01-02 16:43:37","301664","15.2891001","0.0012487","97.4497","66.6877","28.9999","331.1932","0","999","5547","0.00082574","0.00023214","0","4151993","0 SPACEBEE-167","1 55087U 23001CG  24002.69695951  .00023214  00000-0  82574-3 0  9990","2 55087  97.4497  66.6877 0012487  28.9999 331.1932 15.28910010 55475","2023-001CG","55087","6857.206","94.185","487.634","470.509","0"
"GENERATED VIA SPACETRACK.ORG API","18 SPCS","55087","SPACEBEE-167","PAYLOAD","U","23001CG","2024-01-03 03:43:19","979040","15.28931929","0.0012457","97.4495","67.1466","27.4009","332.7885","0","999","5554","0.00082573","0.00023229","0","4152560","0 SPACEBEE-167","1 55087U 23001CG  24003.15509235  .00023229  00000-0  82573-3 0  9996","2 55087  97.4495  67.1466 0012457  27.4009 332.7885 15.28931929 55540","2023-001CG","55087","6857.141","94.183","487.548","470.464","0"
"GENERATED VIA SPACETRACK.ORG API","18 SPCS","55087","SPACEBEE-167","PAYLOAD","U","23001CG","2024-01-03 17:51:31","230144","15.2895833","0.0012359","97.4496","67.7361","25.3901","334.7944","0","999","5563","0.00078371","0.00022057","0","4152804","0 SPACEBEE-167","1 55087U 23001CG  24003.74411146  .00022057  00000-0  78371-3 0  9993","2 55087  97.4496  67.7361 0012359  25.3901 334.7944 15.28958330 55633","2023-001CG","55087","6857.062","94.182","487.402","470.452","0"
"GENERATED VIA SPACETRACK.ORG API","18 SPCS","55087","SPACEBEE-167","PAYLOAD","U","23001CG","2024-01-03 17:51:31","230144","15.2895833","0.0012359","97.4496","67.7361","25.3901","334.7944","0","999","5563","0.00078371","0.00022057","0","4152812","0 SPACEBEE-167","1 55087U 23001CG  24003.74411146  .00022057  00000-0  78371-3 0  9993","2 55087  97.4496  67.7361 0012359  25.3901 334.7944 15.28958330 55633","2023-001CG","55087","6857.062","94.182","487.402","470.452","0"
